COSMOS 2361             
1 25590U 98076A   26064.67118792  .00000074  00000+0  63172-4 0  9993
2 25590  82.9310 282.7629 0032276  37.0223  22.9172 13.73227048362493
COSMOS 2378             
1 26818U 01023A   26064.67238093  .00000078  00000+0  67164-4 0  9999
2 26818  82.9257 298.2470 0032555 338.3618  75.5918 13.74150688240626
COSMOS 2389             
1 27436U 02026A   26064.57085072  .00000065  00000+0  51140-4 0  9999
2 27436  82.9467 245.6648 0046189 187.2782 233.3009 13.75164049192875
COSMOS 2398             
1 27818U 03023A   26064.66446987  .00000060  00000+0  49266-4 0  9998
2 27818  82.9486 211.5837 0030289 241.2931 129.6348 13.72394921139542
COSMOS 2407             
1 28380U 04028A   26064.69961084  .00000097  00000+0  82806-4 0  9999
2 28380  82.9637 151.4793 0039404 179.8664 291.9419 13.76324523 85643
COSMOS 2414             
1 28521U 05002A   26064.65307826  .00000123  00000+0  90253-4 0  9998
2 28521  82.9489 121.9718 0038697 264.3150  95.3600 13.87914941 69457
COSMOS 2429             
1 32052U 07038A   26064.66700962  .00000073  00000+0  60207-4 0  9992
2 32052  82.9773 282.1878 0038710 162.7023 197.5462 13.75157852927428
COSMOS 2454             
1 35635U 09039A   26064.61726167  .00000095  00000+0  63990-4 0  9991
2 35635  82.9532 105.8216 0018914 191.2028 283.4855 13.89940741843019
COSMOS 2463             
1 36519U 10017A   26064.67208465  .00000080  00000+0  71110-4 0  9990
2 36519  82.9636 325.7824 0037346  58.3510 319.8456 13.71657516793744
